1I/`Oumuamua,h,09/09.4886/2017,122.6778,24.5997,241.6845,1.199252,0.255240,2000,23.0,2.0
# From MPEC 2025-R69
2I/Borisov,h,12/09.0572/2019,44.2624,307.8024,209.2911,3.345952,1.997724,2000,11.0,4.0
# From MPEC 2025-VD2
3I/ATLAS,h,10/29.4832/2025,175.1131,322.1571,128.0103,6.139295,1.356435,2000,11.8,4.0
